{
  "type": "FeatureCollection",
  "features": [
    {
      "type": "Feature",
      "properties": {
        "norad_id": 66651,
        "name": "2025-274B",
        "group": "last-30-days",
        "lat": 79.51957099973471,
        "lon": -135.4623055244851,
        "alt_km": 592.505840696962,
        "timestamp": "2025-12-10T14:53:35.947573+00:00",
        "meta_object_name": "2025-274B",
        "meta_object_id": "2025-274B",
        "meta_epoch": "2025-12-10T06:28:23.983392",
        "meta_mean_motion": 14.91766055,
        "meta_eccentricity": 0.00107188,
        "meta_inclination": 97.7379,
        "meta_ra_of_asc_node": 271.5037,
        "meta_arg_of_pericenter": 260.1005,
        "meta_mean_anomaly": 99.9004,
        "meta_ephemeris_type": 0,
        "meta_classification_type": "U",
        "meta_norad_cat_id": 66651,
        "meta_element_set_no": 999,
        "meta_rev_at_epoch": 203,
        "meta_bstar": 0.00060823007,
        "meta_mean_motion_dot": 6.082e-05,
        "meta_mean_motion_ddot": 0,
        "tle_line1": "1 66651U 25274B   25344.26972203  .00006082  00000+0  60823-3 0  9990",
        "tle_line2": "2 66651  97.7379 271.5037 0010718 260.1005  99.9004 14.91766055  2034"
      },
      "geometry": {
        "type": "Point",
        "coordinates": [
          -135.4623055244851,
          79.51957099973471
        ]
      }
    },
    {
      "type": "Feature",
      "properties": {
        "norad_id": 66652,
        "name": "2025-274C",
        "group": "last-30-days",
        "lat": 82.254739448508,
        "lon": -177.02936899066412,
        "alt_km": 591.8419595816049,
        "timestamp": "2025-12-10T14:53:35.947582+00:00",
        "meta_object_name": "2025-274C",
        "meta_object_id": "2025-274C",
        "meta_epoch": "2025-12-10T06:26:34.905120",
        "meta_mean_motion": 14.91879682,
        "meta_eccentricity": 0.00104169,
        "meta_inclination": 97.7386,
        "meta_ra_of_asc_node": 271.5062,
        "meta_arg_of_pericenter": 266.9671,
        "meta_mean_anomaly": 93.0356,
        "meta_ephemeris_type": 0,
        "meta_classification_type": "U",
        "meta_norad_cat_id": 66652,
        "meta_element_set_no": 999,
        "meta_rev_at_epoch": 203,
        "meta_bstar": 0.00038515182,
        "meta_mean_motion_dot": 3.84e-05,
        "meta_mean_motion_ddot": 0,
        "tle_line1": "1 66652U 25274C   25344.26845955  .00003840  00000+0  38515-3 0  9996",
        "tle_line2": "2 66652  97.7386 271.5062 0010416 266.9671  93.0356 14.91879682  2035"
      },
      "geometry": {
        "type": "Point",
        "coordinates": [
          -177.02936899066412,
          82.254739448508
        ]
      }
    },
    {
      "type": "Feature",
      "properties": {
        "norad_id": 66653,
        "name": "2025-274D",
        "group": "last-30-days",
        "lat": 82.25446591769165,
        "lon": -179.40222144658927,
        "alt_km": 592.3515617343228,
        "timestamp": "2025-12-10T14:53:35.947592+00:00",
        "meta_object_name": "2025-274D",
        "meta_object_id": "2025-274D",
        "meta_epoch": "2025-12-10T06:26:29.544000",
        "meta_mean_motion": 14.91883821,
        "meta_eccentricity": 0.00112606,
        "meta_inclination": 97.7385,
        "meta_ra_of_asc_node": 271.5059,
        "meta_arg_of_pericenter": 262.9583,
        "meta_mean_anomaly": 97.0356,
        "meta_ephemeris_type": 0,
        "meta_classification_type": "U",
        "meta_norad_cat_id": 66653,
        "meta_element_set_no": 999,
        "meta_rev_at_epoch": 203,
        "meta_bstar": 0.00038959896,
        "meta_mean_motion_dot": 3.887e-05,
        "meta_mean_motion_ddot": 0,
        "tle_line1": "1 66653U 25274D   25344.26839750  .00003887  00000+0  38960-3 0  9998",
        "tle_line2": "2 66653  97.7385 271.5059 0011260 262.9583  97.0356 14.91883821  2031"
      },
      "geometry": {
        "type": "Point",
        "coordinates": [
          -179.40222144658927,
          82.25446591769165
        ]
      }
    },
    {
      "type": "Feature",
      "properties": {
        "norad_id": 66654,
        "name": "JACK E",
        "group": "last-30-days",
        "lat": 78.50741228430763,
        "lon": 133.832895260609,
        "alt_km": 592.1705564685053,
        "timestamp": "2025-12-10T14:53:35.947601+00:00",
        "meta_object_name": "JACK E",
        "meta_object_id": "2025-274E",
        "meta_epoch": "2025-12-10T04:47:44.383200",
        "meta_mean_motion": 14.92058752,
        "meta_eccentricity": 0.00118572,
        "meta_inclination": 97.7387,
        "meta_ra_of_asc_node": 271.4426,
        "meta_arg_of_pericenter": 264.8886,
        "meta_mean_anomaly": 95.098,
        "meta_ephemeris_type": 0,
        "meta_classification_type": "U",
        "meta_norad_cat_id": 66654,
        "meta_element_set_no": 999,
        "meta_rev_at_epoch": 202,
        "meta_bstar": 0.00043057181,
        "meta_mean_motion_dot": 4.321e-05,
        "meta_mean_motion_ddot": 0,
        "tle_line1": "1 66654U 25274E   25344.19981925  .00004321  00000+0  43057-3 0  9990",
        "tle_line2": "2 66654  97.7387 271.4426 0011857 264.8886  95.0980 14.92058752  2028"
      },
      "geometry": {
        "type": "Point",
        "coordinates": [
          133.832895260609,
          78.50741228430763
        ]
      }
    },
    {
      "type": "Feature",
      "properties": {
        "norad_id": 66655,
        "name": "2025-274F",
        "group": "last-30-days",
        "lat": 67.27995634569048,
        "lon": 110.79448743892392,
        "alt_km": 586.8443829465605,
        "timestamp": "2025-12-10T14:53:35.947611+00:00",
        "meta_object_name": "2025-274F",
        "meta_object_id": "2025-274F",
        "meta_epoch": "2025-12-08T18:57:10.718496",
        "meta_mean_motion": 14.92504145,
        "meta_eccentricity": 0.00054909,
        "meta_inclination": 97.7329,
        "meta_ra_of_asc_node": 270.0601,
        "meta_arg_of_pericenter": 323.8556,
        "meta_mean_anomaly": 36.2292,
        "meta_ephemeris_type": 0,
        "meta_classification_type": "U",
        "meta_norad_cat_id": 66655,
        "meta_element_set_no": 999,
        "meta_rev_at_epoch": 181,
        "meta_bstar": 0.001516128,
        "meta_mean_motion_dot": 0.00015539,
        "meta_mean_motion_ddot": 0,
        "tle_line1": "1 66655U 25274F   25342.78970739  .00015539  00000+0  15161-2 0  9992",
        "tle_line2": "2 66655  97.7329 270.0601 0005490 323.8556  36.2292 14.92504145  1812"
      },
      "geometry": {
        "type": "Point",
        "coordinates": [
          110.79448743892392,
          67.27995634569048
        ]
      }
    },
    {
      "type": "Feature",
      "properties": {
        "norad_id": 66656,
        "name": "2025-274G",
        "group": "last-30-days",
        "lat": 70.74622521436173,
        "lon": 114.77053749395279,
        "alt_km": 592.1132243029479,
        "timestamp": "2025-12-10T14:53:35.947622+00:00",
        "meta_object_name": "2025-274G",
        "meta_object_id": "2025-274G",
        "meta_epoch": "2025-12-10T06:21:54.862848",
        "meta_mean_motion": 14.92248536,
        "meta_eccentricity": 0.0012459,
        "meta_inclination": 97.7384,
        "meta_ra_of_asc_node": 271.5102,
        "meta_arg_of_pericenter": 266.4549,
        "meta_mean_anomaly": 93.5245,
        "meta_ephemeris_type": 0,
        "meta_classification_type": "U",
        "meta_norad_cat_id": 66656,
        "meta_element_set_no": 999,
        "meta_rev_at_epoch": 203,
        "meta_bstar": 0.00046580465,
        "meta_mean_motion_dot": 4.703e-05,
        "meta_mean_motion_ddot": 0,
        "tle_line1": "1 66656U 25274G   25344.26521832  .00004703  00000+0  46580-3 0  9995",
        "tle_line2": "2 66656  97.7384 271.5102 0012459 266.4549  93.5245 14.92248536  2031"
      },
      "geometry": {
        "type": "Point",
        "coordinates": [
          114.77053749395279,
          70.74622521436173
        ]
      }
    },
    {
      "type": "Feature",
      "properties": {
        "norad_id": 66657,
        "name": "SPIRONE",
        "group": "last-30-days",
        "lat": 62.278620492309926,
        "lon": 106.85941138410044,
        "alt_km": 591.7177641198068,
        "timestamp": "2025-12-10T14:53:35.947632+00:00",
        "meta_object_name": "SPIRONE",
        "meta_object_id": "2025-274H",
        "meta_epoch": "2025-12-10T06:19:34.492224",
        "meta_mean_motion": 14.92428036,
        "meta_eccentricity": 0.00108972,
        "meta_inclination": 97.7383,
        "meta_ra_of_asc_node": 271.5118,
        "meta_arg_of_pericenter": 285.2569,
        "meta_mean_anomaly": 74.7446,
        "meta_ephemeris_type": 0,
        "meta_classification_type": "U",
        "meta_norad_cat_id": 66657,
        "meta_element_set_no": 999,
        "meta_rev_at_epoch": 203,
        "meta_bstar": 0.00046152393,
        "meta_mean_motion_dot": 4.678e-05,
        "meta_mean_motion_ddot": 0,
        "tle_line1": "1 66657U 25274H   25344.26359366  .00004678  00000+0  46152-3 0  9993",
        "tle_line2": "2 66657  97.7383 271.5118 0010897 285.2569  74.7446 14.92428036  2032"
      },
      "geometry": {
        "type": "Point",
        "coordinates": [
          106.85941138410044,
          62.278620492309926
        ]
      }
    }
  ]
}